{"type": "FeatureCollection", "features": [ {"type": "Feature", "properties": {"norad_id": 34976, "name": "COSMOS 2251 DEB", "group": "cosmos-2251-debris", "lat": -69.16772129046443, "lon": 177.46064632617973, "alt_km": 652.589790801766, "timestamp": "2025-12-11T10:53:16.285676+00:00", "meta": {"OBJECT_NAME": "COSMOS 2251 DEB", "OBJECT_ID": "1993-036AFF", "EPOCH": "2025-12-11T04:55:00.367104", "MEAN_MOTION": 14.76508285, "ECCENTRICITY": 0.0047835, "INCLINATION": 74.0578, "RA_OF_ASC_NODE": 309.2511, "ARG_OF_PERICENTER": 356.3536, "MEAN_ANOMALY": 18.6757, "EPHEMERIS_TYPE": 0, "CLASSIFICATION_TYPE": "U", "NORAD_CAT_ID": 34976, "ELEMENT_SET_NO": 999, "REV_AT_EPOCH": 88251, "BSTAR": 0.0024751, "MEAN_MOTION_DOT": 0.00017586, "MEAN_MOTION_DDOT": 0}, "tle": {"line1": "1 34976U 93036AFF 25345.20486536  .00017586  00000+0  24751-2 0  9990", "line2": "2 34976  74.0578 309.2511 0047835 356.3536  18.6757 14.76508285882515"}}, "geometry": {"type": "Point", "coordinates": [177.46064632617973, -69.16772129046443]}}, {"type": "Feature", "properties": {"norad_id": 34979, "name": "COSMOS 2251 DEB", "group": "cosmos-2251-debris", "lat": -63.10343442679415, "lon": -124.55250789961569, "alt_km": 619.0020203138965, "timestamp": "2025-12-11T10:53:16.285687+00:00", "meta": {"OBJECT_NAME": "COSMOS 2251 DEB", "OBJECT_ID": "1993-036AFJ", "EPOCH": "2025-12-11T04:42:00.740160", "MEAN_MOTION": 14.79301606, "ECCENTRICITY": 0.0049072, "INCLINATION": 74.0397, "RA_OF_ASC_NODE": 270.3006, "ARG_OF_PERICENTER": 348.5741, "MEAN_ANOMALY": 11.4316, "EPHEMERIS_TYPE": 0, "CLASSIFICATION_TYPE": "U", "NORAD_CAT_ID": 34979, "ELEMENT_SET_NO": 999, "REV_AT_EPOCH": 88197, "BSTAR": 0.0021606, "MEAN_MOTION_DOT": 0.00016414, "MEAN_MOTION_DDOT": 0}, "tle": {"line1": "1 34979U 93036AFJ 25345.19584190  .00016414  00000+0  21606-2 0  9991", "line2": "2 34979  74.0397 270.3006 0049072 348.5741  11.4316 14.79301606881972"}}, "geometry": {"type": "Point", "coordinates": [-124.55250789961569, -63.10343442679415]}}, {"type": "Feature", "properties": {"norad_id": 34990, "name": "COSMOS 2251 DEB", "group": "cosmos-2251-debris", "lat": -26.28861557091302, "lon": 81.84535893520157, "alt_km": 759.6528442873878, "timestamp": "2025-12-11T10:53:16.285697+00:00", "meta": {"OBJECT_NAME": "COSMOS 2251 DEB", "OBJECT_ID": "1993-036AFN", "EPOCH": "2025-12-07T01:03:28.213920", "MEAN_MOTION": 14.42350123, "ECCENTRICITY": 0.00162731, "INCLINATION": 74.0455, "RA_OF_ASC_NODE": 261.8923, "ARG_OF_PERICENTER": 325.0179, "MEAN_ANOMALY": 34.9906, "EPHEMERIS_TYPE": 0, "CLASSIFICATION_TYPE": "U", "NORAD_CAT_ID": 34990, "ELEMENT_SET_NO": 999, "REV_AT_EPOCH": 87264, "BSTAR": 0.00072596004, "MEAN_MOTION_DOT": 2.377e-05, "MEAN_MOTION_DDOT": 0}, "tle": {"line1": "1 34990U 93036AFN 25341.04407655  .00002377  00000+0  72596-3 0  9992", "line2": "2 34990  74.0455 261.8923 0016273 325.0179  34.9906 14.42350123872642"}}, "geometry": {"type": "Point", "coordinates": [81.84535893520157, -26.28861557091302]}}, {"type": "Feature", "properties": {"norad_id": 34997, "name": "COSMOS 2251 DEB", "group": "cosmos-2251-debris", "lat": -0.7112591542242135, "lon": -46.58623125776155, "alt_km": 719.1790051971357, "timestamp": "2025-12-11T10:53:16.285707+00:00", "meta": {"OBJECT_NAME": "COSMOS 2251 DEB", "OBJECT_ID": "1993-036AFV", "EPOCH": "2025-12-09T15:42:21.613248", "MEAN_MOTION": 14.45493879, "ECCENTRICITY": 0.00979027, "INCLINATION": 73.8812, "RA_OF_ASC_NODE": 317.0047, "ARG_OF_PERICENTER": 292.5764, "MEAN_ANOMALY": 66.5057, "EPHEMERIS_TYPE": 0, "CLASSIFICATION_TYPE": "U", "NORAD_CAT_ID": 34997, "ELEMENT_SET_NO": 999, "REV_AT_EPOCH": 70702, "BSTAR": 0.002944294, "MEAN_MOTION_DOT": 0.00010999, "MEAN_MOTION_DDOT": 0}, "tle": {"line1": "1 34997U 93036AFV 25343.65441682  .00010999  00000+0  29443-2 0  9997", "line2": "2 34997  73.8812 317.0047 0097902 292.5764  66.5057 14.45493879707026"}}, "geometry": {"type": "Point", "coordinates": [-46.58623125776155, -0.7112591542242135]}}, {"type": "Feature", "properties": {"norad_id": 34998, "name": "COSMOS 2251 DEB", "group": "cosmos-2251-debris", "lat": -38.316093763725775, "lon": -4.50212939823196, "alt_km": 733.4607367778799, "timestamp": "2025-12-11T10:53:16.285718+00:00", "meta": {"OBJECT_NAME": "COSMOS 2251 DEB", "OBJECT_ID": "1993-036AFW", "EPOCH": "2025-12-09T11:37:03.426816", "MEAN_MOTION": 14.4925952, "ECCENTRICITY": 0.00210124, "INCLINATION": 74.0095, "RA_OF_ASC_NODE": 166.0998, "ARG_OF_PERICENTER": 311.9127, "MEAN_ANOMALY": 76.4992, "EPHEMERIS_TYPE": 0, "CLASSIFICATION_TYPE": "U", "NORAD_CAT_ID": 34998, "ELEMENT_SET_NO": 999, "REV_AT_EPOCH": 87373, "BSTAR": 0.00089460042, "MEAN_MOTION_DOT": 3.394e-05, "MEAN_MOTION_DDOT": 0}, "tle": {"line1": "1 34998U 93036AFW 25343.48406744  .00003394  00000+0  89460-3 0  9996", "line2": "2 34998  74.0095 166.0998 0021012 311.9127  76.4992 14.49259520873735"}}, "geometry": {"type": "Point", "coordinates": [-4.50212939823196, -38.316093763725775]}}, {"type": "Feature", "properties": {"norad_id": 35000, "name": "COSMOS 2251 DEB", "group": "cosmos-2251-debris", "lat": -44.45695454214659, "lon": 37.240259120649874, "alt_km": 302.1896400067444, "timestamp": "2025-12-11T10:53:16.285728+00:00", "meta": {"OBJECT_NAME": "COSMOS 2251 DEB", "OBJECT_ID": "1993-036AFY", "EPOCH": "2025-12-10T00:39:45.535104", "MEAN_MOTION": 15.84722247, "ECCENTRICITY": 0.00096992, "INCLINATION": 73.9939, "RA_OF_ASC_NODE": 204.1935, "ARG_OF_PERICENTER": 175.3945, "MEAN_ANOMALY": 184.7377, "EPHEMERIS_TYPE": 0, "CLASSIFICATION_TYPE": "U", "NORAD_CAT_ID": 35000, "ELEMENT_SET_NO": 999, "REV_AT_EPOCH": 88472, "BSTAR": 0.007821664, "MEAN_MOTION_DOT": 0.0209211, "MEAN_MOTION_DDOT": 0}, "tle": {"line1": "1 35000U 93036AFY 25344.02761036  .02092110  00000+0  78217-2 0  9993", "line2": "2 35000  73.9939 204.1935 0009699 175.3945 184.7377 15.84722247884729"}}, "geometry": {"type": "Point", "coordinates": [37.240259120649874, -44.45695454214659]}}, {"type": "Feature", "properties": {"norad_id": 35012, "name": "COSMOS 2251 DEB", "group": "cosmos-2251-debris", "lat": -29.18475000766678, "lon": -56.65287915080963, "alt_km": 703.8265230802554, "timestamp": "2025-12-11T10:53:16.285738+00:00", "meta": {"OBJECT_NAME": "COSMOS 2251 DEB", "OBJECT_ID": "1993-036AFZ", "EPOCH": "2025-12-10T08:59:46.936320", "MEAN_MOTION": 14.45543822, "ECCENTRICITY": 0.00816553, "INCLINATION": 74.0197, "RA_OF_ASC_NODE": 116.1499, "ARG_OF_PERICENTER": 256.7977, "MEAN_ANOMALY": 102.4062, "EPHEMERIS_TYPE": 0, "CLASSIFICATION_TYPE": "U", "NORAD_CAT_ID": 35012, "ELEMENT_SET_NO": 999, "REV_AT_EPOCH": 87527, "BSTAR": 0.00029743364, "MEAN_MOTION_DOT": 1.064e-05, "MEAN_MOTION_DDOT": 0}, "tle": {"line1": "1 35012U 93036AFZ 25344.37484880  .00001064  00000+0  29743-3 0  9990", "line2": "2 35012  74.0197 116.1499 0081655 256.7977 102.4062 14.45543822875272"}}, "geometry": {"type": "Point", "coordinates": [-56.65287915080963, -29.18475000766678]}}, {"type": "Feature", "properties": {"norad_id": 35014, "name": "COSMOS 2251 DEB", "group": "cosmos-2251-debris", "lat": -0.5960455542752326, "lon": -133.77160666808078, "alt_km": 643.4918455181751, "timestamp": "2025-12-11T10:53:16.285748+00:00", "meta": {"OBJECT_NAME": "COSMOS 2251 DEB", "OBJECT_ID": "1993-036AGB", "EPOCH": "2025-12-10T11:17:04.408224", "MEAN_MOTION": 14.75108648, "ECCENTRICITY": 0.0007489, "INCLINATION": 73.9993, "RA_OF_ASC_NODE": 47.9831, "ARG_OF_PERICENTER": 224.1256, "MEAN_ANOMALY": 135.932, "EPHEMERIS_TYPE": 0, "CLASSIFICATION_TYPE": "U", "NORAD_CAT_ID": 35014, "ELEMENT_SET_NO": 999, "REV_AT_EPOCH": 71303, "BSTAR": 0.0024781418, "MEAN_MOTION_DOT": 0.00016732, "MEAN_MOTION_DDOT": 0}, "tle": {"line1": "1 35014U 93036AGB 25344.47018991  .00016732  00000+0  24781-2 0  9993", "line2": "2 35014  73.9993  47.9831 0007489 224.1256 135.9320 14.75108648713038"}}, "geometry": {"type": "Point", "coordinates": [-133.77160666808078, -0.5960455542752326]}}, {"type": "Feature", "properties": {"norad_id": 35015, "name": "COSMOS 2251 DEB", "group": "cosmos-2251-debris", "lat": -19.34476445458088, "lon": -128.65760637452962, "alt_km": 771.8182465471273, "timestamp": "2025-12-11T10:53:16.285759+00:00", "meta": {"OBJECT_NAME": "COSMOS 2251 DEB", "OBJECT_ID": "1993-036AGC", "EPOCH": "2025-12-08T23:19:05.687904", "MEAN_MOTION": 14.46841193, "ECCENTRICITY": 0.0074204, "INCLINATION": 73.9478, "RA_OF_ASC_NODE": 241.8046, "ARG_OF_PERICENTER": 111.6456, "MEAN_ANOMALY": 265.9615, "EPHEMERIS_TYPE": 0, "CLASSIFICATION_TYPE": "U", "NORAD_CAT_ID": 35015, "ELEMENT_SET_NO": 999, "REV_AT_EPOCH": 65386, "BSTAR": 0.00095869, "MEAN_MOTION_DOT": 3.57e-05, "MEAN_MOTION_DDOT": 0}, "tle": {"line1": "1 35015U 93036AGC 25342.97159361  .00003570  00000+0  95869-3 0  9996", "line2": "2 35015  73.9478 241.8046 0074204 111.6456 265.9615 14.46841193653863"}}, "geometry": {"type": "Point", "coordinates": [-128.65760637452962, -19.34476445458088]}}, {"type": "Feature", "properties": {"norad_id": 35016, "name": "COSMOS 2251 DEB", "group": "cosmos-2251-debris", "lat": 53.40465097078715, "lon": -40.36099028418608, "alt_km": 845.015942757298, "timestamp": "2025-12-11T10:53:16.285770+00:00", "meta": {"OBJECT_NAME": "COSMOS 2251 DEB", "OBJECT_ID": "1993-036AGD", "EPOCH": "2025-12-10T15:22:20.128800", "MEAN_MOTION": 14.35053713, "ECCENTRICITY": 0.011463, "INCLINATION": 73.9299, "RA_OF_ASC_NODE": 298.2962, "ARG_OF_PERICENTER": 215.7196, "MEAN_ANOMALY": 322.3038, "EPHEMERIS_TYPE": 0, "CLASSIFICATION_TYPE": "U", "NORAD_CAT_ID": 35016, "ELEMENT_SET_NO": 999, "REV_AT_EPOCH": 86752, "BSTAR": 0.00053949, "MEAN_MOTION_DOT": 1.629e-05, "MEAN_MOTION_DDOT": 0}, "tle": {"line1": "1 35016U 93036AGD 25344.64051075  .00001629  00000+0  53949-3 0  9992", "line2": "2 35016  73.9299 298.2962 0114630 215.7196 322.3038 14.35053713867521"}}, "geometry": {"type": "Point", "coordinates": [-40.36099028418608, 53.40465097078715]}}]}